[{"OBJECT_NAME":"IRIDE FM1","OBJECT_ID":"2025-276AF","EPOCH":"2026-03-09T18:13:05.170368","MEAN_MOTION":15.19690008,"ECCENTRICITY":8.247e-5,"INCLINATION":97.4265,"RA_OF_ASC_NODE":144.1318,"ARG_OF_PERICENTER":49.2046,"MEAN_ANOMALY":310.9261,"EPHEMERIS_TYPE":0,"CLASSIFICATION_TYPE":"U","NORAD_CAT_ID":66695,"ELEMENT_SET_NO":999,"REV_AT_EPOCH":1533,"BSTAR":0.00038663659,"MEAN_MOTION_DOT":8.188e-5,"MEAN_MOTION_DDOT":0},{"OBJECT_NAME":"OBJECT Z","OBJECT_ID":"2025-313Z","EPOCH":"2026-03-09T23:02:13.726176","MEAN_MOTION":15.20703812,"ECCENTRICITY":0.00148585,"INCLINATION":97.4007,"RA_OF_ASC_NODE":145.164,"ARG_OF_PERICENTER":355.5095,"MEAN_ANOMALY":4.6005,"EPHEMERIS_TYPE":0,"CLASSIFICATION_TYPE":"U","NORAD_CAT_ID":67271,"ELEMENT_SET_NO":999,"REV_AT_EPOCH":1085,"BSTAR":0.00029410612,"MEAN_MOTION_DOT":6.416e-5,"MEAN_MOTION_DDOT":0}]
